KAITUO 1B               
1 40912U 15049P   17282.07289942  .00002437  00000-0  12281-3 0  9999
2 40912  97.4517 288.0838 0015871 159.1768 272.5084 15.18016793113562
TIANWANG 1C (TW-1C)     
1 40926U 15051B   17282.09657177  .00012597  00000-0  27076-3 0  9994
2 40926  97.2186 320.8321 0013078 111.4065 300.9930 15.44710576114495
TIANWANG 1B (TW-1B)     
1 40927U 15051C   17282.18830318  .00012402  00000-0  27705-3 0  9999
2 40927  97.2276 320.8895 0012733 120.9955 312.8324 15.43574993114446
TIANWANG 1A (TW-1A)     
1 40928U 15051D   17282.05121742  .00005734  00000-0  16004-3 0  9990
2 40928  97.2168 315.8122 0013427 140.9160 273.2608 15.37030918114188
LAPAN-A2 (IO-86)        
1 40931U 15052B   17282.12789962  .00000721  00000-0  11407-4 0  9991
2 40931   5.9989 140.3200 0013309  53.4689 306.6664 14.76546767109835
LQSAT                   
1 40958U 15057A   17282.23574634  .00000089  00000-0  21610-4 0  9999
2 40958  97.9698 355.5102 0019591  63.1610 297.1611 14.72991365107900
CHUBUSAT-2              
1 41338U 16012B   17281.89433711  .00000606  00000-0  40979-4 0  9999
2 41338  31.0027 110.0592 0013722 105.2782 254.9371 14.99828521 90078
CHUBUSAT-3              
1 41339U 16012C   17281.87373014  .00000667  00000-0  45504-4 0  9993
2 41339  31.0096 109.1550 0013550 111.2534 248.9545 15.00027945 90057
OUFTI-1                 
1 41458U 16025C   17281.92458054  .00002689  00000-0  14676-3 0  9994
2 41458  98.1750 325.9856 0171079 269.3941  88.7680 15.03709741 79674
E-ST@R-II               
1 41459U 16025D   17282.09173169  .00001158  00000-0  66185-4 0  9998
2 41459  98.1751 326.0910 0172428 269.1236  89.0231 15.03497440 79680
AAUSAT 4                
1 41460U 16025E   17282.21581642  .00003087  00000-0  16735-3 0  9991
2 41460  98.1651 326.4022 0164623 266.5871  91.6549 15.04577421 79739
NUSAT 1 (LO-87)         
1 41557U 16033B   17282.21540273  .00002373  00000-0  90815-4 0  9991
2 41557  97.4563   1.7169 0013133 330.7660  29.2843 15.27504590 75837
BEESAT-4                
1 41619U 16040W   17281.61448968  .00002568  00000-0  11795-3 0  9994
2 41619  97.4503 342.8609 0012772  38.6124 321.6022 15.21234152 59833
PRATHAM                 
1 41783U 16059A   17281.63718965  .00000113  00000-0  31394-4 0  9997
2 41783  98.1548 341.7649 0034099 163.0750 197.1598 14.62866250 55180
ALSAT 1N                
1 41789U 16059G   17282.14678363  .00000171  00000-0  41578-4 0  9996
2 41789  98.1554 342.9912 0028947 154.2840 205.9816 14.64085057 55288
NAYIF-1 (EO-88)         
1 42017U 17008BX  17281.88809538  .00002750  00000-0  11825-3 0  9992
2 42017  97.4829 343.0797 0006850 169.1430 190.9956 15.23488082 35795
LILACSAT-1              
1 42725U 98067ME  17282.11825301  .00021782  00000-0  28332-3 0  9992
2 42725  51.6386 188.2673 0005707  29.4669 330.6644 15.58690215 21226
MAX VALIER SAT          
1 42778U 17036P   17281.60972625  .00001893  00000-0  89261-4 0  9992
2 42778  97.4395 340.0607 0011748 224.8182 135.2105 15.20663723 16262
